{"features":[{"geometry":{"coordinates":[-74.174887,40.606985],"type":"Point"},"properties":{"cooling":"unknown","id":"dc_0000","in_steam":false,"in_uten":false,"mw":5.249924999999999,"mw_source":"atlas_sqft","name":"Telehouse Teleport","region":"nyc","sources":["im3_datacenter_atlas"]},"type":"Feature"},{"geometry":{"coordinates":[-74.17318,40.60738],"type":"Point"},"properties":{"cooling":"unknown","id":"dc_0001","in_steam":false,"in_uten":false,"mw":4.757625,"mw_source":"atlas_sqft","name":"Merrill Lynch Data Center","region":"nyc","sources":["im3_datacenter_atlas"]},"type":"Feature"},{"geometry":{"coordinates":[-74.004816,40.657696],"type":"Point"},"properties":{"cooling":"unknown","id":"dc_0002","in_steam":false,"in_uten":false,"mw":1.5,"mw_source":"atlas_default","name":"Dataverge","region":"nyc","sources":["im3_datacenter_atlas"]},"type":"Feature"},{"geometry":{"coordinates":[-74.005913,40.716525],"type":"Point"},"properties":{"cooling":"unknown","id":"dc_0003","in_steam":false,"in_uten":false,"mw":2.309325,"mw_source":"atlas_sqft","name":"33 Thomas Street","region":"nyc","sources":["im3_datacenter_atlas"]},"type":"Feature"},{"geometry":{"coordinates":[-74.008441,40.717677],"type":"Point"},"properties":{"cooling":"unknown","id":"dc_0004","in_steam":false,"in_uten":false,"mw":1.5,"mw_source":"atlas_default","name":"Digital Realty New York JFK12","region":"nyc","sources":["im3_datacenter_atlas"]},"type":"Feature"},{"geometry":{"coordinates":[-74.004636,40.719998],"type":"Point"},"properties":{"cooling":"unknown","id":"dc_0005","in_steam":false,"in_uten":false,"mw":3.1796999999999995,"mw_source":"atlas_sqft","name":"32 Avenue of the Americas","region":"nyc","sources":["im3_datacenter_atlas"]},"type":"Feature"}],"type":"FeatureCollection"}
