{"features":[{"geometry":{"coordinates":[-74.174887,40.606985],"type":"Point"},"properties":{"cooling":"unknown","id":"dc_0000","in_steam":false,"in_uten":false,"mw":5.249924999999999,"mw_source":"atlas_sqft","name":"Telehouse Teleport","region":"nyc","sources":["im3_datacenter_atlas"]},"type":"Feature"},{"geometry":{"coordinates":[-74.17318,40.60738],"type":"Point"},"properties":{"cooling":"unknown","id":"dc_0001","in_steam":false,"in_uten":false,"mw":4.757625,"mw_source":"atlas_sqft","name":"Merrill Lynch Data Center","region":"nyc","sources":["im3_datacenter_atlas"]},"type":"Feature"},{"geometry":{"coordinates":[-74.123976,40.638306],"type":"Point"},"properties":{"cooling":"unknown","id":"dc_0002","in_steam":false,"in_uten":false,"mw":0.25799999999999995,"mw_source":"pluto_estimate","name":"Verizon \u2014 1741 Richmond Terrace","region":"nyc","sources":["nyc_pluto"]},"type":"Feature"},{"geometry":{"coordinates":[-74.004816,40.657696],"type":"Point"},"properties":{"cooling":"unknown","id":"dc_0003","in_steam":false,"in_uten":false,"mw":1.5,"mw_source":"atlas_default","name":"Dataverge","region":"nyc","sources":["im3_datacenter_atlas"]},"type":"Feature"},{"geometry":{"coordinates":[-73.769465,40.659236],"type":"Point"},"properties":{"cooling":"unknown","id":"dc_0004","in_steam":false,"in_uten":false,"mw":1.0157999999999998,"mw_source":"pluto_estimate","name":"Verizon \u2014 175-28 148 Avenue","region":"nyc","sources":["nyc_pluto"]},"type":"Feature"},{"geometry":{"coordinates":[-74.012681,40.703383],"type":"Point"},"properties":{"cooling":"unknown","id":"dc_0005","in_steam":true,"in_uten":false,"mw":25.0,"mw_source":"pluto_estimate","name":"33 Whitehall Street","region":"nyc","sources":["nyc_pluto"]},"type":"Feature"},{"geometry":{"coordinates":[-73.93347,40.708807],"type":"Point"},"properties":{"cooling":"unknown","id":"dc_0006","in_steam":false,"in_uten":false,"mw":2.4397499999999996,"mw_source":"pluto_estimate","name":"Verizon \u2014 131 Morgan Avenue","region":"nyc","sources":["nyc_pluto"]},"type":"Feature"},{"geometry":{"coordinates":[-74.001176,40.710907],"type":"Point"},"properties":{"cooling":"unknown","id":"dc_0007","in_steam":true,"in_uten":false,"mw":25.0,"mw_source":"pluto_estimate","name":"375 Pearl Street","region":"nyc","sources":["nyc_pluto"]},"type":"Feature"},{"geometry":{"coordinates":[-74.005913,40.716525],"type":"Point"},"properties":{"cooling":"unknown","id":"dc_0008","in_steam":true,"in_uten":false,"mw":2.309325,"mw_source":"atlas_sqft","name":"33 Thomas Street","region":"nyc","sources":["im3_datacenter_atlas"]},"type":"Feature"},{"geometry":{"coordinates":[-74.00834,40.717656],"type":"Point"},"properties":{"cooling":"unknown","id":"dc_0009","in_steam":true,"in_uten":false,"mw":25.0,"mw_source":"pluto_estimate","name":"56 Hudson Street","region":"nyc","sources":["nyc_pluto"]},"type":"Feature"},{"geometry":{"coordinates":[-74.008441,40.717677],"type":"Point"},"properties":{"cooling":"unknown","id":"dc_0010","in_steam":true,"in_uten":false,"mw":1.5,"mw_source":"atlas_default","name":"Digital Realty New York JFK12","region":"nyc","sources":["im3_datacenter_atlas"]},"type":"Feature"},{"geometry":{"coordinates":[-74.004636,40.719998],"type":"Point"},"properties":{"cooling":"unknown","id":"dc_0011","in_steam":true,"in_uten":false,"mw":3.1796999999999995,"mw_source":"atlas_sqft","name":"32 Avenue of the Americas","region":"nyc","sources":["im3_datacenter_atlas"]},"type":"Feature"},{"geometry":{"coordinates":[-74.003208,40.74136],"type":"Point"},"properties":{"cooling":"unknown","id":"dc_0012","in_steam":true,"in_uten":false,"mw":25.0,"mw_source":"pluto_estimate","name":"111 8 Avenue","region":"nyc","sources":["nyc_pluto"]},"type":"Feature"},{"geometry":{"coordinates":[-74.007983,40.743385],"type":"Point"},"properties":{"cooling":"unknown","id":"dc_0013","in_steam":true,"in_uten":false,"mw":25.0,"mw_source":"pluto_estimate","name":"85 10 Avenue","region":"nyc","sources":["nyc_pluto"]},"type":"Feature"},{"geometry":{"coordinates":[-72.883345,40.84366],"type":"Point"},"properties":{"cooling":"unknown","id":"dc_0014","in_steam":false,"in_uten":false,"mw":2.75595,"mw_source":"atlas_sqft","name":"Cable & Wireless Cable Landing Station","region":"upstate","sources":["im3_datacenter_atlas"]},"type":"Feature"},{"geometry":{"coordinates":[-73.897901,40.95127],"type":"Point"},"properties":{"cooling":"unknown","id":"dc_0015","in_steam":false,"in_uten":false,"mw":1.00695,"mw_source":"atlas_sqft","name":"Unnamed data center","region":"upstate","sources":["im3_datacenter_atlas"]},"type":"Feature"},{"geometry":{"coordinates":[-73.975764,41.034485],"type":"Point"},"properties":{"cooling":"unknown","id":"dc_0016","in_steam":false,"in_uten":false,"mw":11.3637,"mw_source":"atlas_sqft","name":"fifteenfortyseven CSR ORNY1","region":"upstate","sources":["im3_datacenter_atlas"]},"type":"Feature"},{"geometry":{"coordinates":[-73.987494,41.03627],"type":"Point"},"properties":{"cooling":"unknown","id":"dc_0017","in_steam":false,"in_uten":false,"mw":13.690425,"mw_source":"atlas_sqft","name":"Bloomberg Data Center","region":"upstate","sources":["im3_datacenter_atlas"]},"type":"Feature"},{"geometry":{"coordinates":[-73.989651,41.039943],"type":"Point"},"properties":{"cooling":"unknown","id":"dc_0018","in_steam":false,"in_uten":false,"mw":14.8089,"mw_source":"atlas_sqft","name":"Databank LGA3","region":"upstate","sources":["im3_datacenter_atlas"]},"type":"Feature"},{"geometry":{"coordinates":[-73.971839,41.05233],"type":"Point"},"properties":{"cooling":"unknown","id":"dc_0019","in_steam":false,"in_uten":false,"mw":19.7079,"mw_source":"atlas_sqft","name":"Unnamed data center","region":"upstate","sources":["im3_datacenter_atlas"]},"type":"Feature"},{"geometry":{"coordinates":[-73.752745,42.649353],"type":"Point"},"properties":{"cooling":"unknown","id":"dc_0020","in_steam":false,"in_uten":false,"mw":1.151625,"mw_source":"atlas_sqft","name":"IBM Building","region":"upstate","sources":["im3_datacenter_atlas"]},"type":"Feature"},{"geometry":{"coordinates":[-73.818665,42.735631],"type":"Point"},"properties":{"cooling":"unknown","id":"dc_0021","in_steam":false,"in_uten":false,"mw":1.5,"mw_source":"atlas_default","name":"Lumen Albany 4","region":"upstate","sources":["im3_datacenter_atlas"]},"type":"Feature"},{"geometry":{"coordinates":[-73.7592,42.745441],"type":"Point"},"properties":{"cooling":"unknown","id":"dc_0022","in_steam":false,"in_uten":false,"mw":0.7848749999999999,"mw_source":"atlas_sqft","name":"Turnkey Internet","region":"upstate","sources":["im3_datacenter_atlas"]},"type":"Feature"},{"geometry":{"coordinates":[-78.812384,42.990201],"type":"Point"},"properties":{"cooling":"unknown","id":"dc_0023","in_steam":false,"in_uten":false,"mw":1.5,"mw_source":"atlas_default","name":"Frontier Science","region":"upstate","sources":["im3_datacenter_atlas"]},"type":"Feature"},{"geometry":{"coordinates":[-76.115925,43.012076],"type":"Point"},"properties":{"cooling":"unknown","id":"dc_0024","in_steam":false,"in_uten":false,"mw":0.9126749999999999,"mw_source":"atlas_sqft","name":"SU Green Data Center","region":"upstate","sources":["im3_datacenter_atlas"]},"type":"Feature"},{"geometry":{"coordinates":[-78.749207,43.044985],"type":"Point"},"properties":{"cooling":"unknown","id":"dc_0025","in_steam":false,"in_uten":false,"mw":3.1453499999999996,"mw_source":"atlas_sqft","name":"Unnamed data center","region":"upstate","sources":["im3_datacenter_atlas"]},"type":"Feature"},{"geometry":{"coordinates":[-78.944802,43.074838],"type":"Point"},"properties":{"cooling":"unknown","id":"dc_0026","in_steam":false,"in_uten":false,"mw":1.2181499999999998,"mw_source":"atlas_sqft","name":"Blockfusion","region":"upstate","sources":["im3_datacenter_atlas"]},"type":"Feature"},{"geometry":{"coordinates":[-79.030723,43.082056],"type":"Point"},"properties":{"cooling":"unknown","id":"dc_0027","in_steam":false,"in_uten":false,"mw":4.616924999999999,"mw_source":"atlas_sqft","name":"US Bitcoin","region":"upstate","sources":["im3_datacenter_atlas"]},"type":"Feature"},{"geometry":{"coordinates":[-78.6903,43.1706],"type":"Point"},"properties":{"cooling":"air","id":"dc_0028","in_steam":false,"in_uten":false,"mw":15.0,"mw_source":"manual","name":"Yahoo Lockport Data Center","region":"upstate","sources":["manual_upstate"]},"type":"Feature"}],"type":"FeatureCollection"}
