{"features":[{"geometry":{"coordinates":[-74.181627,40.595895],"type":"Point"},"properties":{"cat":"greenhouse","demand_kwh":140588.62171806395,"demand_source":"footprint_estimate","id":"s_00000","in_steam":false,"in_uten":false,"name":"Unnamed greenhouse","region":"nyc","sources":["osm_overpass"],"steam_heated":false},"type":"Feature"},{"geometry":{"coordinates":[-74.168286,40.602456],"type":"Point"},"properties":{"cat":"pool","demand_kwh":146507.89272598922,"demand_source":"footprint_estimate","id":"s_00001","in_steam":false,"in_uten":false,"name":"Unnamed pool","region":"nyc","sources":["osm_overpass"],"steam_heated":false},"type":"Feature"},{"geometry":{"coordinates":[-74.161318,40.60807],"type":"Point"},"properties":{"cat":"school","demand_kwh":3398590.512739867,"demand_source":"footprint_estimate","id":"s_00002","in_steam":false,"in_uten":false,"name":"Hellenic Classical Charter School","region":"nyc","sources":["osm_overpass"],"steam_heated":false},"type":"Feature"},{"geometry":{"coordinates":[-74.164036,40.609364],"type":"Point"},"properties":{"cat":"school","demand_kwh":13166465.234329404,"demand_source":"footprint_estimate","id":"s_00003","in_steam":false,"in_uten":false,"name":"Moore Catholic High School","region":"nyc","sources":["osm_overpass"],"steam_heated":false},"type":"Feature"},{"geometry":{"coordinates":[-74.166984,40.610397],"type":"Point"},"properties":{"cat":"pool","demand_kwh":9421.367886126973,"demand_source":"footprint_estimate","id":"s_00004","in_steam":false,"in_uten":false,"name":"Unnamed pool","region":"nyc","sources":["osm_overpass"],"steam_heated":false},"type":"Feature"},{"geometry":{"coordinates":[-74.162627,40.610622],"type":"Point"},"properties":{"cat":"school","demand_kwh":5131887.655592412,"demand_source":"footprint_estimate","id":"s_00005","in_steam":false,"in_uten":false,"name":"P.S. 60 - Alice Austen School","region":"nyc","sources":["osm_overpass"],"steam_heated":false},"type":"Feature"},{"geometry":{"coordinates":[-74.178707,40.613206],"type":"Point"},"properties":{"cat":"hotel","demand_kwh":1500000.0,"demand_source":"category_default","id":"s_00006","in_steam":false,"in_uten":false,"name":"Hampton Inn & Suites Staten Island","region":"nyc","sources":["osm_overpass"],"steam_heated":false},"type":"Feature"},{"geometry":{"coordinates":[-74.163475,40.614703],"type":"Point"},"properties":{"cat":"pool","demand_kwh":7396.127093210816,"demand_source":"footprint_estimate","id":"s_00007","in_steam":false,"in_uten":false,"name":"Unnamed pool","region":"nyc","sources":["osm_overpass"],"steam_heated":false},"type":"Feature"},{"geometry":{"coordinates":[-74.176475,40.614945],"type":"Point"},"properties":{"cat":"hotel","demand_kwh":12607846.651652036,"demand_source":"footprint_estimate","id":"s_00008","in_steam":false,"in_uten":false,"name":"Hilton Garden Inn","region":"nyc","sources":["osm_overpass"],"steam_heated":false},"type":"Feature"},{"geometry":{"coordinates":[-74.164968,40.616549],"type":"Point"},"properties":{"cat":"pool","demand_kwh":6709.358013421297,"demand_source":"footprint_estimate","id":"s_00009","in_steam":false,"in_uten":false,"name":"Unnamed pool","region":"nyc","sources":["osm_overpass"],"steam_heated":false},"type":"Feature"},{"geometry":{"coordinates":[-74.165853,40.616934],"type":"Point"},"properties":{"cat":"pool","demand_kwh":7188.6663891375065,"demand_source":"footprint_estimate","id":"s_00010","in_steam":false,"in_uten":false,"name":"Unnamed pool","region":"nyc","sources":["osm_overpass"],"steam_heated":false},"type":"Feature"},{"geometry":{"coordinates":[-74.003405,40.646002],"type":"Point"},"properties":{"cat":"pool","demand_kwh":2149.5033137500286,"demand_source":"footprint_estimate","id":"s_00011","in_steam":false,"in_uten":false,"name":"Unnamed pool","region":"nyc","sources":["osm_overpass"],"steam_heated":false},"type":"Feature"},{"geometry":{"coordinates":[-73.99632,40.646938],"type":"Point"},"properties":{"cat":"hotel","demand_kwh":1444863.0223235115,"demand_source":"footprint_estimate","id":"s_00012","in_steam":false,"in_uten":false,"name":"Holiday Inn Express","region":"nyc","sources":["osm_overpass"],"steam_heated":false},"type":"Feature"},{"geometry":{"coordinates":[-74.002581,40.647195],"type":"Point"},"properties":{"cat":"pool","demand_kwh":1549849.7419482097,"demand_source":"footprint_estimate","id":"s_00013","in_steam":false,"in_uten":false,"name":"Sunset Park Swimming Pool","region":"nyc","sources":["osm_overpass"],"steam_heated":false},"type":"Feature"},{"geometry":{"coordinates":[-74.000704,40.649023],"type":"Point"},"properties":{"cat":"hotel","demand_kwh":890489.3954604864,"demand_source":"footprint_estimate","id":"s_00014","in_steam":false,"in_uten":false,"name":"King Hotel","region":"nyc","sources":["osm_overpass"],"steam_heated":false},"type":"Feature"},{"geometry":{"coordinates":[-74.014466,40.650623],"type":"Point"},"properties":{"cat":"brewery","demand_kwh":373016.0828143358,"demand_source":"footprint_estimate","id":"s_00015","in_steam":false,"in_uten":false,"name":"Five Boroughs Brewing Co.","region":"nyc","sources":["osm_overpass"],"steam_heated":false},"type":"Feature"},{"geometry":{"coordinates":[-74.011767,40.650996],"type":"Point"},"properties":{"cat":"hotel","demand_kwh":810250.4189193249,"demand_source":"footprint_estimate","id":"s_00016","in_steam":false,"in_uten":false,"name":"Quality Inn","region":"nyc","sources":["osm_overpass"],"steam_heated":false},"type":"Feature"},{"geometry":{"coordinates":[-74.003284,40.65108],"type":"Point"},"properties":{"cat":"hotel","demand_kwh":630704.9041016959,"demand_source":"footprint_estimate","id":"s_00017","in_steam":false,"in_uten":false,"name":"Phoenix Hotel","region":"nyc","sources":["osm_overpass"],"steam_heated":false},"type":"Feature"},{"geometry":{"coordinates":[-74.004503,40.651864],"type":"Point"},"properties":{"cat":"hotel","demand_kwh":616690.6150062103,"demand_source":"footprint_estimate","id":"s_00018","in_steam":false,"in_uten":false,"name":"Wyndham Garden","region":"nyc","sources":["osm_overpass"],"steam_heated":false},"type":"Feature"},{"geometry":{"coordinates":[-74.007635,40.652184],"type":"Point"},"properties":{"cat":"school","demand_kwh":1976542.113121748,"demand_source":"footprint_estimate","id":"s_00019","in_steam":false,"in_uten":false,"name":"M.S. 136 - Charles O. Dewey Middle School","region":"nyc","sources":["osm_overpass"],"steam_heated":false},"type":"Feature"},{"geometry":{"coordinates":[-74.004989,40.652224],"type":"Point"},"properties":{"cat":"hotel","demand_kwh":507838.5291259736,"demand_source":"footprint_estimate","id":"s_00020","in_steam":false,"in_uten":false,"name":"Days Inn","region":"nyc","sources":["osm_overpass"],"steam_heated":false},"type":"Feature"},{"geometry":{"coordinates":[-74.004594,40.652935],"type":"Point"},"properties":{"cat":"school","demand_kwh":2008619.1911780275,"demand_source":"footprint_estimate","id":"s_00021","in_steam":false,"in_uten":false,"name":"P.S. 24","region":"nyc","sources":["osm_overpass"],"steam_heated":false},"type":"Feature"},{"geometry":{"coordinates":[-74.003298,40.65661],"type":"Point"},"properties":{"cat":"hotel","demand_kwh":547357.510779798,"demand_source":"footprint_estimate","id":"s_00022","in_steam":false,"in_uten":false,"name":"Hotel BPM","region":"nyc","sources":["osm_overpass"],"steam_heated":false},"type":"Feature"},{"geometry":{"coordinates":[-74.002832,40.657243],"type":"Point"},"properties":{"cat":"hotel","demand_kwh":365474.52272158116,"demand_source":"footprint_estimate","id":"s_00023","in_steam":false,"in_uten":false,"name":"L Hotel","region":"nyc","sources":["osm_overpass"],"steam_heated":false},"type":"Feature"},{"geometry":{"coordinates":[-74.007321,40.657617],"type":"Point"},"properties":{"cat":"brewery","demand_kwh":600000.0,"demand_source":"category_default","id":"s_00024","in_steam":false,"in_uten":false,"name":"Brooklyn Kura","region":"nyc","sources":["osm_overpass"],"steam_heated":false},"type":"Feature"},{"geometry":{"coordinates":[-74.001356,40.657681],"type":"Point"},"properties":{"cat":"hotel","demand_kwh":1066576.2244138867,"demand_source":"footprint_estimate","id":"s_00025","in_steam":false,"in_uten":false,"name":"GLo Best Western Brooklyn","region":"nyc","sources":["osm_overpass"],"steam_heated":false},"type":"Feature"},{"geometry":{"coordinates":[-74.000457,40.658611],"type":"Point"},"properties":{"cat":"hotel","demand_kwh":1116984.8526477814,"demand_source":"footprint_estimate","id":"s_00026","in_steam":false,"in_uten":false,"name":"Liberty View Brooklyn Hotel","region":"nyc","sources":["osm_overpass"],"steam_heated":false},"type":"Feature"},{"geometry":{"coordinates":[-73.996101,40.659111],"type":"Point"},"properties":{"cat":"greenhouse","demand_kwh":81699.08826860774,"demand_source":"footprint_estimate","id":"s_00027","in_steam":false,"in_uten":false,"name":"McGovern Weir Greenhouse","region":"nyc","sources":["osm_overpass"],"steam_heated":false},"type":"Feature"},{"geometry":{"coordinates":[-73.998643,40.660324],"type":"Point"},"properties":{"cat":"hotel","demand_kwh":2102036.6378112696,"demand_source":"footprint_estimate","id":"s_00028","in_steam":false,"in_uten":false,"name":"Brooklyn Way Hotel Prospect Park","region":"nyc","sources":["osm_overpass"],"steam_heated":false},"type":"Feature"},{"geometry":{"coordinates":[-73.988559,40.660684],"type":"Point"},"properties":{"cat":"school","demand_kwh":3812546.2673580833,"demand_source":"footprint_estimate","id":"s_00029","in_steam":false,"in_uten":false,"name":"Unnamed school","region":"nyc","sources":["osm_overpass"],"steam_heated":false},"type":"Feature"},{"geometry":{"coordinates":[-73.994758,40.662609],"type":"Point"},"properties":{"cat":"school","demand_kwh":2147836.709838733,"demand_source":"footprint_estimate","id":"s_00030","in_steam":false,"in_uten":false,"name":"Al-Noor School","region":"nyc","sources":["osm_overpass"],"steam_heated":false},"type":"Feature"},{"geometry":{"coordinates":[-73.997549,40.663562],"type":"Point"},"properties":{"cat":"hotel","demand_kwh":724272.1753003076,"demand_source":"footprint_estimate","id":"s_00031","in_steam":false,"in_uten":false,"name":"Essence Hotel","region":"nyc","sources":["osm_overpass"],"steam_heated":false},"type":"Feature"},{"geometry":{"coordinates":[-73.996111,40.663657],"type":"Point"},"properties":{"cat":"hotel","demand_kwh":836361.9675491005,"demand_source":"footprint_estimate","id":"s_00032","in_steam":false,"in_uten":false,"name":"Comfort Inn","region":"nyc","sources":["osm_overpass"],"steam_heated":false},"type":"Feature"},{"geometry":{"coordinates":[-73.992094,40.665449],"type":"Point"},"properties":{"cat":"residential_multifamily","demand_kwh":2733509.022536287,"demand_source":"footprint_estimate","id":"s_00033","in_steam":false,"in_uten":false,"name":"Unnamed residential multifamily","region":"nyc","sources":["osm_overpass"],"steam_heated":false},"type":"Feature"},{"geometry":{"coordinates":[-74.007723,40.703789],"type":"Point"},"properties":{"cat":"office","demand_kwh":2189377.4127760157,"demand_source":"footprint_estimate","id":"s_00034","in_steam":false,"in_uten":false,"name":"One Financial Square","region":"nyc","sources":["osm_overpass"],"steam_heated":false},"type":"Feature"},{"geometry":{"coordinates":[-74.007,40.704249],"type":"Point"},"properties":{"cat":"office","demand_kwh":7396414.534912258,"demand_source":"footprint_estimate","id":"s_00035","in_steam":false,"in_uten":false,"name":"111 Wall Street","region":"nyc","sources":["osm_overpass"],"steam_heated":false},"type":"Feature"},{"geometry":{"coordinates":[-74.010272,40.704584],"type":"Point"},"properties":{"cat":"hotel","demand_kwh":506777.11139023304,"demand_source":"footprint_estimate","id":"s_00036","in_steam":false,"in_uten":false,"name":"Wall Street Inn","region":"nyc","sources":["osm_overpass"],"steam_heated":false},"type":"Feature"},{"geometry":{"coordinates":[-74.007892,40.705039],"type":"Point"},"properties":{"cat":"hotel","demand_kwh":1500000.0,"demand_source":"category_default","id":"s_00037","in_steam":false,"in_uten":false,"name":"Hyatt Centric","region":"nyc","sources":["osm_overpass"],"steam_heated":false},"type":"Feature"},{"geometry":{"coordinates":[-74.0062,40.705188],"type":"Point"},"properties":{"cat":"hotel","demand_kwh":1500000.0,"demand_source":"category_default","id":"s_00038","in_steam":false,"in_uten":false,"name":"Eurostars Wall Street","region":"nyc","sources":["osm_overpass"],"steam_heated":false},"type":"Feature"},{"geometry":{"coordinates":[-74.013153,40.705348],"type":"Point"},"properties":{"cat":"university","demand_kwh":5000000.0,"demand_source":"category_default","id":"s_00039","in_steam":false,"in_uten":false,"name":"New York Film Academy","region":"nyc","sources":["osm_overpass"],"steam_heated":false},"type":"Feature"},{"geometry":{"coordinates":[-74.007574,40.705483],"type":"Point"},"properties":{"cat":"hotel","demand_kwh":1500000.0,"demand_source":"category_default","id":"s_00040","in_steam":false,"in_uten":false,"name":"The Wall Street Hotel","region":"nyc","sources":["osm_overpass"],"steam_heated":false},"type":"Feature"},{"geometry":{"coordinates":[-74.01557,40.705957],"type":"Point"},"properties":{"cat":"pool","demand_kwh":29897.712760418653,"demand_source":"footprint_estimate","id":"s_00041","in_steam":false,"in_uten":false,"name":"Unnamed pool","region":"nyc","sources":["osm_overpass"],"steam_heated":false},"type":"Feature"},{"geometry":{"coordinates":[-74.005049,40.70598],"type":"Point"},"properties":{"cat":"hotel","demand_kwh":1500000.0,"demand_source":"category_default","id":"s_00042","in_steam":false,"in_uten":false,"name":"Fairfield Inn New York Manhattan/Financial District","region":"nyc","sources":["osm_overpass"],"steam_heated":false},"type":"Feature"},{"geometry":{"coordinates":[-74.006804,40.70615],"type":"Point"},"properties":{"cat":"office","demand_kwh":3181257.407273054,"demand_source":"footprint_estimate","id":"s_00043","in_steam":false,"in_uten":false,"name":"Unnamed office","region":"nyc","sources":["osm_overpass"],"steam_heated":false},"type":"Feature"},{"geometry":{"coordinates":[-74.007442,40.706395],"type":"Point"},"properties":{"cat":"hotel","demand_kwh":1500000.0,"demand_source":"category_default","id":"s_00044","in_steam":false,"in_uten":false,"name":"Mint House","region":"nyc","sources":["osm_overpass"],"steam_heated":false},"type":"Feature"},{"geometry":{"coordinates":[-74.008896,40.706413],"type":"Point"},"properties":{"cat":"hotel","demand_kwh":1500000.0,"demand_source":"category_default","id":"s_00045","in_steam":false,"in_uten":false,"name":"Unnamed hotel","region":"nyc","sources":["osm_overpass"],"steam_heated":false},"type":"Feature"},{"geometry":{"coordinates":[-74.012381,40.706654],"type":"Point"},"properties":{"cat":"university","demand_kwh":5000000.0,"demand_source":"category_default","id":"s_00046","in_steam":false,"in_uten":false,"name":"The King's College","region":"nyc","sources":["osm_overpass"],"steam_heated":false},"type":"Feature"},{"geometry":{"coordinates":[-74.016968,40.706969],"type":"Point"},"properties":{"cat":"residential_multifamily","demand_kwh":1715603.4713784792,"demand_source":"footprint_estimate","id":"s_00047","in_steam":false,"in_uten":false,"name":"The Visionaire","region":"nyc","sources":["osm_overpass"],"steam_heated":false},"type":"Feature"},{"geometry":{"coordinates":[-74.006335,40.707224],"type":"Point"},"properties":{"cat":"hotel","demand_kwh":4457385.622686893,"demand_source":"footprint_estimate","id":"s_00048","in_steam":false,"in_uten":false,"name":"Courtyard New York Downtown Financial District","region":"nyc","sources":["osm_overpass"],"steam_heated":false},"type":"Feature"},{"geometry":{"coordinates":[-74.017653,40.707289],"type":"Point"},"properties":{"cat":"residential_multifamily","demand_kwh":2045897.389029893,"demand_source":"footprint_estimate","id":"s_00049","in_steam":false,"in_uten":false,"name":"Riverwatch","region":"nyc","sources":["osm_overpass"],"steam_heated":false},"type":"Feature"},{"geometry":{"coordinates":[-74.013296,40.707756],"type":"Point"},"properties":{"cat":"hotel","demand_kwh":1780420.648905784,"demand_source":"footprint_estimate","id":"s_00050","in_steam":false,"in_uten":false,"name":"Hotel Indigo","region":"nyc","sources":["osm_overpass"],"steam_heated":false},"type":"Feature"},{"geometry":{"coordinates":[-74.014088,40.707876],"type":"Point"},"properties":{"cat":"residential_multifamily","demand_kwh":1448839.1613819636,"demand_source":"footprint_estimate","id":"s_00051","in_steam":false,"in_uten":false,"name":"Greenwich Club Residences","region":"nyc","sources":["osm_overpass"],"steam_heated":false},"type":"Feature"},{"geometry":{"coordinates":[-74.001418,40.708008],"type":"Point"},"properties":{"cat":"hotel","demand_kwh":1500000.0,"demand_source":"category_default","id":"s_00052","in_steam":false,"in_uten":false,"name":"33 Hotel, New York City, Seaport","region":"nyc","sources":["osm_overpass"],"steam_heated":false},"type":"Feature"},{"geometry":{"coordinates":[-74.013619,40.708272],"type":"Point"},"properties":{"cat":"hotel","demand_kwh":1500000.0,"demand_source":"category_default","id":"s_00053","in_steam":false,"in_uten":false,"name":"Courtyard New York Downtown Manhattan/World Trade Center Area","region":"nyc","sources":["osm_overpass"],"steam_heated":false},"type":"Feature"},{"geometry":{"coordinates":[-74.002036,40.708891],"type":"Point"},"properties":{"cat":"hotel","demand_kwh":471140.98373763263,"demand_source":"footprint_estimate","id":"s_00054","in_steam":false,"in_uten":false,"name":"Hampton Inn Manhattan-Seaport-Financial District","region":"nyc","sources":["osm_overpass"],"steam_heated":false},"type":"Feature"},{"geometry":{"coordinates":[-74.009209,40.70906],"type":"Point"},"properties":{"cat":"hotel","demand_kwh":876604.9469087273,"demand_source":"footprint_estimate","id":"s_00055","in_steam":false,"in_uten":false,"name":"Holiday Inn","region":"nyc","sources":["osm_overpass"],"steam_heated":false},"type":"Feature"},{"geometry":{"coordinates":[-74.013679,40.709208],"type":"Point"},"properties":{"cat":"hotel","demand_kwh":1516161.944496492,"demand_source":"footprint_estimate","id":"s_00056","in_steam":false,"in_uten":false,"name":"The Washington New York City","region":"nyc","sources":["osm_overpass"],"steam_heated":false},"type":"Feature"},{"geometry":{"coordinates":[-74.012665,40.709336],"type":"Point"},"properties":{"cat":"hotel","demand_kwh":2983831.9255603105,"demand_source":"footprint_estimate","id":"s_00057","in_steam":false,"in_uten":false,"name":"The Cloud One New York-Downtown","region":"nyc","sources":["osm_overpass"],"steam_heated":false},"type":"Feature"},{"geometry":{"coordinates":[-74.014343,40.709428],"type":"Point"},"properties":{"cat":"hotel","demand_kwh":3400066.5362365544,"demand_source":"footprint_estimate","id":"s_00058","in_steam":false,"in_uten":false,"name":"Marriott Downtown","region":"nyc","sources":["osm_overpass"],"steam_heated":false},"type":"Feature"},{"geometry":{"coordinates":[-74.009795,40.709566],"type":"Point"},"properties":{"cat":"hotel","demand_kwh":1500000.0,"demand_source":"category_default","id":"s_00059","in_steam":false,"in_uten":false,"name":"Residence Inn New York Downtown Manhattan/World Trade Center Area","region":"nyc","sources":["osm_overpass"],"steam_heated":false},"type":"Feature"},{"geometry":{"coordinates":[-74.008699,40.709629],"type":"Point"},"properties":{"cat":"hotel","demand_kwh":1500000.0,"demand_source":"category_default","id":"s_00060","in_steam":false,"in_uten":false,"name":"The Artezen","region":"nyc","sources":["osm_overpass"],"steam_heated":false},"type":"Feature"},{"geometry":{"coordinates":[-74.010857,40.709737],"type":"Point"},"properties":{"cat":"office","demand_kwh":16981936.544438526,"demand_source":"footprint_estimate","id":"s_00061","in_steam":false,"in_uten":false,"name":"One Liberty Plaza","region":"nyc","sources":["osm_overpass"],"steam_heated":false},"type":"Feature"},{"geometry":{"coordinates":[-74.013878,40.709825],"type":"Point"},"properties":{"cat":"hotel","demand_kwh":1500000.0,"demand_source":"category_default","id":"s_00062","in_steam":false,"in_uten":false,"name":"World Center Hotel","region":"nyc","sources":["osm_overpass"],"steam_heated":false},"type":"Feature"},{"geometry":{"coordinates":[-74.003235,40.710158],"type":"Point"},"properties":{"cat":"office","demand_kwh":4275314.607092254,"demand_source":"footprint_estimate","id":"s_00063","in_steam":false,"in_uten":false,"name":"New York City Department of Housing Preservation and Development","region":"nyc","sources":["osm_overpass"],"steam_heated":false},"type":"Feature"},{"geometry":{"coordinates":[-74.004957,40.710305],"type":"Point"},"properties":{"cat":"hospital","demand_kwh":9647596.581317484,"demand_source":"footprint_estimate","id":"s_00064","in_steam":false,"in_uten":false,"name":"NewYork-Presbyterian Lower Manhattan Hospital","region":"nyc","sources":["osm_overpass"],"steam_heated":false},"type":"Feature"},{"geometry":{"coordinates":[-74.004956,40.710307],"type":"Point"},"properties":{"cat":"university","demand_kwh":3622608.7009477587,"demand_source":"footprint_estimate","id":"s_00065","in_steam":false,"in_uten":false,"name":"Weill Medical College of Cornell University","region":"nyc","sources":["osm_overpass"],"steam_heated":false},"type":"Feature"},{"geometry":{"coordinates":[-74.006666,40.710406],"type":"Point"},"properties":{"cat":"hotel","demand_kwh":732580.7072024792,"demand_source":"footprint_estimate","id":"s_00066","in_steam":false,"in_uten":false,"name":"Aloft Manhattan Downtown","region":"nyc","sources":["osm_overpass"],"steam_heated":false},"type":"Feature"},{"geometry":{"coordinates":[-74.008398,40.710862],"type":"Point"},"properties":{"cat":"residential_multifamily","demand_kwh":1911346.722817663,"demand_source":"footprint_estimate","id":"s_00067","in_steam":false,"in_uten":false,"name":"Unnamed residential multifamily","region":"nyc","sources":["osm_overpass"],"steam_heated":false},"type":"Feature"},{"geometry":{"coordinates":[-74.005608,40.7109],"type":"Point"},"properties":{"cat":"residential_multifamily","demand_kwh":8326496.451319302,"demand_source":"footprint_estimate","id":"s_00068","in_steam":false,"in_uten":false,"name":"Unnamed residential multifamily","region":"nyc","sources":["osm_overpass"],"steam_heated":false},"type":"Feature"},{"geometry":{"coordinates":[-74.016498,40.710904],"type":"Point"},"properties":{"cat":"residential_multifamily","demand_kwh":1179136.3547006622,"demand_source":"footprint_estimate","id":"s_00069","in_steam":false,"in_uten":false,"name":"Gateway Plaza 100","region":"nyc","sources":["osm_overpass"],"steam_heated":false},"type":"Feature"},{"geometry":{"coordinates":[-74.006936,40.711033],"type":"Point"},"properties":{"cat":"hotel","demand_kwh":1500000.0,"demand_source":"category_default","id":"s_00070","in_steam":false,"in_uten":false,"name":"The Beekman, A Thompson Hotel","region":"nyc","sources":["osm_overpass"],"steam_heated":false},"type":"Feature"},{"geometry":{"coordinates":[-74.010244,40.711126],"type":"Point"},"properties":{"cat":"hotel","demand_kwh":10420741.305852905,"demand_source":"footprint_estimate","id":"s_00071","in_steam":false,"in_uten":false,"name":"M Social Hotel New York Downtown","region":"nyc","sources":["osm_overpass"],"steam_heated":false},"type":"Feature"},{"geometry":{"coordinates":[-74.015374,40.71113],"type":"Point"},"properties":{"cat":"brewery","demand_kwh":600000.0,"demand_source":"category_default","id":"s_00072","in_steam":false,"in_uten":false,"name":"Sixpoint Brewery at Brookfield Place","region":"nyc","sources":["osm_overpass"],"steam_heated":false},"type":"Feature"},{"geometry":{"coordinates":[-74.00484,40.711193],"type":"Point"},"properties":{"cat":"university","demand_kwh":6688021.834393521,"demand_source":"footprint_estimate","id":"s_00073","in_steam":false,"in_uten":false,"name":"Pace University","region":"nyc","sources":["osm_overpass"],"steam_heated":false},"type":"Feature"},{"geometry":{"coordinates":[-73.992681,40.712355],"type":"Point"},"properties":{"cat":"hotel","demand_kwh":1500000.0,"demand_source":"category_default","id":"s_00074","in_steam":false,"in_uten":false,"name":"Madison Les Hotel","region":"nyc","sources":["osm_overpass"],"steam_heated":false},"type":"Feature"},{"geometry":{"coordinates":[-73.999902,40.712429],"type":"Point"},"properties":{"cat":"residential_multifamily","demand_kwh":1499976.4141260367,"demand_source":"footprint_estimate","id":"s_00075","in_steam":false,"in_uten":false,"name":"Chatham Green","region":"nyc","sources":["osm_overpass"],"steam_heated":false},"type":"Feature"},{"geometry":{"coordinates":[-74.01063,40.712727],"type":"Point"},"properties":{"cat":"office","demand_kwh":4364116.328286175,"demand_source":"footprint_estimate","id":"s_00076","in_steam":false,"in_uten":false,"name":"Federal Office Building","region":"nyc","sources":["osm_overpass"],"steam_heated":false},"type":"Feature"},{"geometry":{"coordinates":[-74.009211,40.712755],"type":"Point"},"properties":{"cat":"hotel","demand_kwh":1500000.0,"demand_source":"category_default","id":"s_00077","in_steam":false,"in_uten":false,"name":"Four Seasons Private Residences New York Downtown;Four Seasons Hotel New York Downtown","region":"nyc","sources":["osm_overpass"],"steam_heated":false},"type":"Feature"},{"geometry":{"coordinates":[-73.991516,40.71291],"type":"Point"},"properties":{"cat":"school","demand_kwh":2526655.026646368,"demand_source":"footprint_estimate","id":"s_00078","in_steam":false,"in_uten":false,"name":"P.S. 2 - The Meyer London School","region":"nyc","sources":["osm_overpass"],"steam_heated":false},"type":"Feature"},{"geometry":{"coordinates":[-73.992887,40.713251],"type":"Point"},"properties":{"cat":"hotel","demand_kwh":1500000.0,"demand_source":"category_default","id":"s_00079","in_steam":false,"in_uten":false,"name":"Fairfield Inn & Suites","region":"nyc","sources":["osm_overpass"],"steam_heated":false},"type":"Feature"},{"geometry":{"coordinates":[-74.00555,40.713388],"type":"Point"},"properties":{"cat":"office","demand_kwh":2581839.000201635,"demand_source":"footprint_estimate","id":"s_00080","in_steam":false,"in_uten":false,"name":"Tweed Courthouse","region":"nyc","sources":["osm_overpass"],"steam_heated":false},"type":"Feature"},{"geometry":{"coordinates":[-74.012077,40.713396],"type":"Point"},"properties":{"cat":"office","demand_kwh":14619769.52226162,"demand_source":"footprint_estimate","id":"s_00081","in_steam":false,"in_uten":false,"name":"7 World Trade Center","region":"nyc","sources":["osm_overpass"],"steam_heated":false},"type":"Feature"},{"geometry":{"coordinates":[-73.993627,40.713636],"type":"Point"},"properties":{"cat":"hotel","demand_kwh":1500000.0,"demand_source":"category_default","id":"s_00082","in_steam":false,"in_uten":false,"name":"Hotel91","region":"nyc","sources":["osm_overpass"],"steam_heated":false},"type":"Feature"},{"geometry":{"coordinates":[-73.993784,40.714134],"type":"Point"},"properties":{"cat":"hotel","demand_kwh":268111.171637848,"demand_source":"footprint_estimate","id":"s_00083","in_steam":false,"in_uten":false,"name":"Hotel Mimosa","region":"nyc","sources":["osm_overpass"],"steam_heated":false},"type":"Feature"},{"geometry":{"coordinates":[-74.005625,40.714211],"type":"Point"},"properties":{"cat":"office","demand_kwh":2269707.895277962,"demand_source":"footprint_estimate","id":"s_00084","in_steam":false,"in_uten":false,"name":"Sun Building","region":"nyc","sources":["osm_overpass"],"steam_heated":false},"type":"Feature"},{"geometry":{"coordinates":[-74.012157,40.714486],"type":"Point"},"properties":{"cat":"office","demand_kwh":10885580.975996107,"demand_source":"footprint_estimate","id":"s_00085","in_steam":false,"in_uten":false,"name":"Unnamed office","region":"nyc","sources":["osm_overpass"],"steam_heated":false},"type":"Feature"},{"geometry":{"coordinates":[-73.995981,40.714649],"type":"Point"},"properties":{"cat":"residential_multifamily","demand_kwh":32590266.109427556,"demand_source":"footprint_estimate","id":"s_00086","in_steam":false,"in_uten":false,"name":"Confucius Plaza","region":"nyc","sources":["osm_overpass"],"steam_heated":false},"type":"Feature"},{"geometry":{"coordinates":[-74.005147,40.714725],"type":"Point"},"properties":{"cat":"office","demand_kwh":2879747.055185102,"demand_source":"footprint_estimate","id":"s_00087","in_steam":false,"in_uten":false,"name":"Ted Weiss Federal Building","region":"nyc","sources":["osm_overpass"],"steam_heated":false},"type":"Feature"},{"geometry":{"coordinates":[-73.993082,40.714741],"type":"Point"},"properties":{"cat":"hotel","demand_kwh":223400.0200862065,"demand_source":"footprint_estimate","id":"s_00088","in_steam":false,"in_uten":false,"name":"Hotel Richland","region":"nyc","sources":["osm_overpass"],"steam_heated":false},"type":"Feature"},{"geometry":{"coordinates":[-74.015694,40.714956],"type":"Point"},"properties":{"cat":"hotel","demand_kwh":1500000.0,"demand_source":"category_default","id":"s_00089","in_steam":false,"in_uten":false,"name":"Conrad","region":"nyc","sources":["osm_overpass"],"steam_heated":false},"type":"Feature"},{"geometry":{"coordinates":[-73.999365,40.715213],"type":"Point"},"properties":{"cat":"hotel","demand_kwh":438261.69415852055,"demand_source":"footprint_estimate","id":"s_00090","in_steam":false,"in_uten":false,"name":"Hotel Mulberry","region":"nyc","sources":["osm_overpass"],"steam_heated":false},"type":"Feature"},{"geometry":{"coordinates":[-73.9938,40.715277],"type":"Point"},"properties":{"cat":"hotel","demand_kwh":1293263.011326827,"demand_source":"footprint_estimate","id":"s_00091","in_steam":false,"in_uten":false,"name":"Canal Loft Hotel","region":"nyc","sources":["osm_overpass"],"steam_heated":false},"type":"Feature"},{"geometry":{"coordinates":[-74.00419,40.715456],"type":"Point"},"properties":{"cat":"office","demand_kwh":3476314.8986904323,"demand_source":"footprint_estimate","id":"s_00092","in_steam":false,"in_uten":false,"name":"Javits Federal Building","region":"nyc","sources":["osm_overpass"],"steam_heated":false},"type":"Feature"},{"geometry":{"coordinates":[-74.010475,40.715566],"type":"Point"},"properties":{"cat":"hotel","demand_kwh":1296573.8208264112,"demand_source":"footprint_estimate","id":"s_00093","in_steam":false,"in_uten":false,"name":"Warren Street Hotel","region":"nyc","sources":["osm_overpass"],"steam_heated":false},"type":"Feature"},{"geometry":{"coordinates":[-74.008857,40.715575],"type":"Point"},"properties":{"cat":"hotel","demand_kwh":1500000.0,"demand_source":"category_default","id":"s_00094","in_steam":false,"in_uten":false,"name":"The Frederick Hotel","region":"nyc","sources":["osm_overpass"],"steam_heated":false},"type":"Feature"},{"geometry":{"coordinates":[-74.012111,40.715629],"type":"Point"},"properties":{"cat":"residential_multifamily","demand_kwh":5442505.563297942,"demand_source":"footprint_estimate","id":"s_00095","in_steam":false,"in_uten":false,"name":"Unnamed residential multifamily","region":"nyc","sources":["osm_overpass"],"steam_heated":false},"type":"Feature"},{"geometry":{"coordinates":[-74.002328,40.715678],"type":"Point"},"properties":{"cat":"office","demand_kwh":2423606.522821784,"demand_source":"footprint_estimate","id":"s_00096","in_steam":false,"in_uten":false,"name":"Health Building","region":"nyc","sources":["osm_overpass"],"steam_heated":false},"type":"Feature"},{"geometry":{"coordinates":[-73.996807,40.71598],"type":"Point"},"properties":{"cat":"hotel","demand_kwh":2264442.8792136256,"demand_source":"footprint_estimate","id":"s_00097","in_steam":false,"in_uten":false,"name":"Hotel 50 Bowery","region":"nyc","sources":["osm_overpass"],"steam_heated":false},"type":"Feature"},{"geometry":{"coordinates":[-74.007339,40.715988],"type":"Point"},"properties":{"cat":"hotel","demand_kwh":1500000.0,"demand_source":"category_default","id":"s_00098","in_steam":false,"in_uten":false,"name":"Duane Street Hotel","region":"nyc","sources":["osm_overpass"],"steam_heated":false},"type":"Feature"},{"geometry":{"coordinates":[-73.995222,40.71604],"type":"Point"},"properties":{"cat":"hotel","demand_kwh":1500000.0,"demand_source":"category_default","id":"s_00099","in_steam":false,"in_uten":false,"name":"Leon Hotel","region":"nyc","sources":["osm_overpass"],"steam_heated":false},"type":"Feature"},{"geometry":{"coordinates":[-73.994945,40.716679],"type":"Point"},"properties":{"cat":"hotel","demand_kwh":853985.0678130984,"demand_source":"footprint_estimate","id":"s_00100","in_steam":false,"in_uten":false,"name":"Hotel MB","region":"nyc","sources":["osm_overpass"],"steam_heated":false},"type":"Feature"},{"geometry":{"coordinates":[-74.006305,40.717281],"type":"Point"},"properties":{"cat":"university","demand_kwh":5000000.0,"demand_source":"category_default","id":"s_00101","in_steam":false,"in_uten":false,"name":"New York Law School","region":"nyc","sources":["osm_overpass"],"steam_heated":false},"type":"Feature"},{"geometry":{"coordinates":[-73.994976,40.71747],"type":"Point"},"properties":{"cat":"hotel","demand_kwh":1500000.0,"demand_source":"category_default","id":"s_00102","in_steam":false,"in_uten":false,"name":"World Hotel","region":"nyc","sources":["osm_overpass"],"steam_heated":false},"type":"Feature"},{"geometry":{"coordinates":[-73.995266,40.717922],"type":"Point"},"properties":{"cat":"hotel","demand_kwh":1500000.0,"demand_source":"category_default","id":"s_00103","in_steam":false,"in_uten":false,"name":"U.S. Pacific","region":"nyc","sources":["osm_overpass"],"steam_heated":false},"type":"Feature"},{"geometry":{"coordinates":[-74.013826,40.718015],"type":"Point"},"properties":{"cat":"school","demand_kwh":1978284.24442688,"demand_source":"footprint_estimate","id":"s_00104","in_steam":false,"in_uten":false,"name":"Stuyvesant High School","region":"nyc","sources":["osm_overpass"],"steam_heated":false},"type":"Feature"},{"geometry":{"coordinates":[-73.990638,40.718042],"type":"Point"},"properties":{"cat":"hotel","demand_kwh":376823.2487218268,"demand_source":"footprint_estimate","id":"s_00105","in_steam":false,"in_uten":false,"name":"The Allen Hotel","region":"nyc","sources":["osm_overpass"],"steam_heated":false},"type":"Feature"},{"geometry":{"coordinates":[-74.001214,40.718242],"type":"Point"},"properties":{"cat":"hotel","demand_kwh":607518.7924320158,"demand_source":"footprint_estimate","id":"s_00106","in_steam":false,"in_uten":false,"name":"Best Western Plus Soho Hotel","region":"nyc","sources":["osm_overpass"],"steam_heated":false},"type":"Feature"},{"geometry":{"coordinates":[-74.00214,40.718348],"type":"Point"},"properties":{"cat":"hotel","demand_kwh":1500000.0,"demand_source":"category_default","id":"s_00107","in_steam":false,"in_uten":false,"name":"Walker Hotel Tribeca","region":"nyc","sources":["osm_overpass"],"steam_heated":false},"type":"Feature"},{"geometry":{"coordinates":[-73.989734,40.718572],"type":"Point"},"properties":{"cat":"hotel","demand_kwh":380464.0892364085,"demand_source":"footprint_estimate","id":"s_00108","in_steam":false,"in_uten":false,"name":"Blue Moon Hotel","region":"nyc","sources":["osm_overpass"],"steam_heated":false},"type":"Feature"},{"geometry":{"coordinates":[-74.000409,40.71878],"type":"Point"},"properties":{"cat":"hotel","demand_kwh":1500000.0,"demand_source":"category_default","id":"s_00109","in_steam":false,"in_uten":false,"name":"JG Sohotel","region":"nyc","sources":["osm_overpass"],"steam_heated":false},"type":"Feature"},{"geometry":{"coordinates":[-74.001668,40.719021],"type":"Point"},"properties":{"cat":"hotel","demand_kwh":1500000.0,"demand_source":"category_default","id":"s_00110","in_steam":false,"in_uten":false,"name":"Soho Garden Hotel","region":"nyc","sources":["osm_overpass"],"steam_heated":false},"type":"Feature"},{"geometry":{"coordinates":[-73.994228,40.719191],"type":"Point"},"properties":{"cat":"hotel","demand_kwh":1500000.0,"demand_source":"category_default","id":"s_00111","in_steam":false,"in_uten":false,"name":"Moxy","region":"nyc","sources":["osm_overpass"],"steam_heated":false},"type":"Feature"},{"geometry":{"coordinates":[-73.996808,40.719283],"type":"Point"},"properties":{"cat":"hotel","demand_kwh":1500000.0,"demand_source":"category_default","id":"s_00112","in_steam":false,"in_uten":false,"name":"NobleDen","region":"nyc","sources":["osm_overpass"],"steam_heated":false},"type":"Feature"},{"geometry":{"coordinates":[-74.004836,40.719385],"type":"Point"},"properties":{"cat":"hotel","demand_kwh":2294443.890426929,"demand_source":"footprint_estimate","id":"s_00113","in_steam":false,"in_uten":false,"name":"Roxy Hotel","region":"nyc","sources":["osm_overpass"],"steam_heated":false},"type":"Feature"},{"geometry":{"coordinates":[-73.989937,40.719493],"type":"Point"},"properties":{"cat":"hotel","demand_kwh":1500000.0,"demand_source":"category_default","id":"s_00114","in_steam":false,"in_uten":false,"name":"Sago Hotel","region":"nyc","sources":["osm_overpass"],"steam_heated":false},"type":"Feature"},{"geometry":{"coordinates":[-73.994728,40.719533],"type":"Point"},"properties":{"cat":"hotel","demand_kwh":1500000.0,"demand_source":"category_default","id":"s_00115","in_steam":false,"in_uten":false,"name":"Sohotel","region":"nyc","sources":["osm_overpass"],"steam_heated":false},"type":"Feature"},{"geometry":{"coordinates":[-73.999784,40.719761],"type":"Point"},"properties":{"cat":"hotel","demand_kwh":2019654.6461638995,"demand_source":"footprint_estimate","id":"s_00116","in_steam":false,"in_uten":false,"name":"NoMo SoHo","region":"nyc","sources":["osm_overpass"],"steam_heated":false},"type":"Feature"},{"geometry":{"coordinates":[-73.988093,40.719778],"type":"Point"},"properties":{"cat":"hotel","demand_kwh":900424.2979368428,"demand_source":"footprint_estimate","id":"s_00117","in_steam":false,"in_uten":false,"name":"Hotel on Rivington","region":"nyc","sources":["osm_overpass"],"steam_heated":false},"type":"Feature"},{"geometry":{"coordinates":[-73.998914,40.719837],"type":"Point"},"properties":{"cat":"hotel","demand_kwh":1500000.0,"demand_source":"category_default","id":"s_00118","in_steam":false,"in_uten":false,"name":"The SoLita SoHo Hotel","region":"nyc","sources":["osm_overpass"],"steam_heated":false},"type":"Feature"},{"geometry":{"coordinates":[-73.988024,40.720321],"type":"Point"},"properties":{"cat":"hotel","demand_kwh":223804.60101552308,"demand_source":"footprint_estimate","id":"s_00119","in_steam":false,"in_uten":false,"name":"The Redford Hotel","region":"nyc","sources":["osm_overpass"],"steam_heated":false},"type":"Feature"},{"geometry":{"coordinates":[-73.993471,40.72058],"type":"Point"},"properties":{"cat":"hotel","demand_kwh":2306934.0303209354,"demand_source":"footprint_estimate","id":"s_00120","in_steam":false,"in_uten":false,"name":"citizenM","region":"nyc","sources":["osm_overpass"],"steam_heated":false},"type":"Feature"},{"geometry":{"coordinates":[-73.995317,40.720614],"type":"Point"},"properties":{"cat":"hotel","demand_kwh":1500000.0,"demand_source":"category_default","id":"s_00121","in_steam":false,"in_uten":false,"name":"Nolitan Hotel","region":"nyc","sources":["osm_overpass"],"steam_heated":false},"type":"Feature"},{"geometry":{"coordinates":[-74.011167,40.72065],"type":"Point"},"properties":{"cat":"office","demand_kwh":2721943.900159076,"demand_source":"footprint_estimate","id":"s_00122","in_steam":false,"in_uten":false,"name":"Unnamed office","region":"nyc","sources":["osm_overpass"],"steam_heated":false},"type":"Feature"},{"geometry":{"coordinates":[-74.005584,40.720833],"type":"Point"},"properties":{"cat":"hotel","demand_kwh":1124899.1927953775,"demand_source":"footprint_estimate","id":"s_00123","in_steam":false,"in_uten":false,"name":"AMTD Idea Tribeca Hotel","region":"nyc","sources":["osm_overpass"],"steam_heated":false},"type":"Feature"},{"geometry":{"coordinates":[-74.004268,40.720859],"type":"Point"},"properties":{"cat":"hotel","demand_kwh":1500000.0,"demand_source":"category_default","id":"s_00124","in_steam":false,"in_uten":false,"name":"Sheraton","region":"nyc","sources":["osm_overpass"],"steam_heated":false},"type":"Feature"},{"geometry":{"coordinates":[-74.010924,40.721128],"type":"Point"},"properties":{"cat":"office","demand_kwh":4940969.790633833,"demand_source":"footprint_estimate","id":"s_00125","in_steam":false,"in_uten":false,"name":"Unnamed office","region":"nyc","sources":["osm_overpass"],"steam_heated":false},"type":"Feature"},{"geometry":{"coordinates":[-73.988855,40.721147],"type":"Point"},"properties":{"cat":"hotel","demand_kwh":1500000.0,"demand_source":"category_default","id":"s_00126","in_steam":false,"in_uten":false,"name":"Orchard Street Hotel","region":"nyc","sources":["osm_overpass"],"steam_heated":false},"type":"Feature"},{"geometry":{"coordinates":[-73.992679,40.721296],"type":"Point"},"properties":{"cat":"hotel","demand_kwh":1500000.0,"demand_source":"category_default","id":"s_00127","in_steam":false,"in_uten":false,"name":"Off Soho Suites Hotel","region":"nyc","sources":["osm_overpass"],"steam_heated":false},"type":"Feature"},{"geometry":{"coordinates":[-73.992792,40.72188],"type":"Point"},"properties":{"cat":"hotel","demand_kwh":1500000.0,"demand_source":"category_default","id":"s_00128","in_steam":false,"in_uten":false,"name":"Untitled","region":"nyc","sources":["osm_overpass"],"steam_heated":false},"type":"Feature"},{"geometry":{"coordinates":[-74.004356,40.722004],"type":"Point"},"properties":{"cat":"hotel","demand_kwh":1500000.0,"demand_source":"category_default","id":"s_00129","in_steam":false,"in_uten":false,"name":"Soho Grand Hotel","region":"nyc","sources":["osm_overpass"],"steam_heated":false},"type":"Feature"},{"geometry":{"coordinates":[-73.998248,40.722181],"type":"Point"},"properties":{"cat":"hotel","demand_kwh":1500000.0,"demand_source":"category_default","id":"s_00130","in_steam":false,"in_uten":false,"name":"49 Crosby","region":"nyc","sources":["osm_overpass"],"steam_heated":false},"type":"Feature"},{"geometry":{"coordinates":[-74.004844,40.72263],"type":"Point"},"properties":{"cat":"hotel","demand_kwh":1500000.0,"demand_source":"category_default","id":"s_00131","in_steam":false,"in_uten":false,"name":"Modernhaus SoHo","region":"nyc","sources":["osm_overpass"],"steam_heated":false},"type":"Feature"},{"geometry":{"coordinates":[-73.992915,40.722641],"type":"Point"},"properties":{"cat":"hotel","demand_kwh":1500000.0,"demand_source":"category_default","id":"s_00132","in_steam":false,"in_uten":false,"name":"Sunshine Hotel","region":"nyc","sources":["osm_overpass"],"steam_heated":false},"type":"Feature"},{"geometry":{"coordinates":[-73.989337,40.722942],"type":"Point"},"properties":{"cat":"hotel","demand_kwh":1500000.0,"demand_source":"category_default","id":"s_00133","in_steam":false,"in_uten":false,"name":"The Ridge","region":"nyc","sources":["osm_overpass"],"steam_heated":false},"type":"Feature"},{"geometry":{"coordinates":[-73.997412,40.723004],"type":"Point"},"properties":{"cat":"hotel","demand_kwh":789663.6321119964,"demand_source":"footprint_estimate","id":"s_00134","in_steam":false,"in_uten":false,"name":"Crosby Street Hotel","region":"nyc","sources":["osm_overpass"],"steam_heated":false},"type":"Feature"},{"geometry":{"coordinates":[-73.992022,40.723051],"type":"Point"},"properties":{"cat":"hotel","demand_kwh":3328446.981408298,"demand_source":"footprint_estimate","id":"s_00135","in_steam":false,"in_uten":false,"name":"PUBLIC, an Ian Schrager hotel","region":"nyc","sources":["osm_overpass"],"steam_heated":false},"type":"Feature"},{"geometry":{"coordinates":[-73.990208,40.723191],"type":"Point"},"properties":{"cat":"hotel","demand_kwh":1500000.0,"demand_source":"category_default","id":"s_00136","in_steam":false,"in_uten":false,"name":"The Gatsby Hotel","region":"nyc","sources":["osm_overpass"],"steam_heated":false},"type":"Feature"},{"geometry":{"coordinates":[-73.991881,40.723458],"type":"Point"},"properties":{"cat":"residential_multifamily","demand_kwh":9518099.761855006,"demand_source":"footprint_estimate","id":"s_00137","in_steam":false,"in_uten":false,"name":"Avalon Chrystie Place","region":"nyc","sources":["osm_overpass"],"steam_heated":false},"type":"Feature"},{"geometry":{"coordinates":[-74.005259,40.72382],"type":"Point"},"properties":{"cat":"hotel","demand_kwh":1500000.0,"demand_source":"category_default","id":"s_00138","in_steam":false,"in_uten":false,"name":"SoHo 54 Hotel","region":"nyc","sources":["osm_overpass"],"steam_heated":false},"type":"Feature"},{"geometry":{"coordinates":[-74.010764,40.723908],"type":"Point"},"properties":{"cat":"residential_multifamily","demand_kwh":1691415.371065659,"demand_source":"footprint_estimate","id":"s_00139","in_steam":false,"in_uten":false,"name":"Truffles Tribeca","region":"nyc","sources":["osm_overpass"],"steam_heated":false},"type":"Feature"},{"geometry":{"coordinates":[-74.003072,40.72394],"type":"Point"},"properties":{"cat":"hotel","demand_kwh":850636.6211056709,"demand_source":"footprint_estimate","id":"s_00140","in_steam":false,"in_uten":false,"name":"Sixty SoHo","region":"nyc","sources":["osm_overpass"],"steam_heated":false},"type":"Feature"},{"geometry":{"coordinates":[-74.005641,40.724033],"type":"Point"},"properties":{"cat":"residential_multifamily","demand_kwh":5875698.762137094,"demand_source":"footprint_estimate","id":"s_00141","in_steam":false,"in_uten":false,"name":"565 Broome SoHo","region":"nyc","sources":["osm_overpass"],"steam_heated":false},"type":"Feature"},{"geometry":{"coordinates":[-73.991808,40.724399],"type":"Point"},"properties":{"cat":"residential_multifamily","demand_kwh":2521407.129536271,"demand_source":"footprint_estimate","id":"s_00142","in_steam":false,"in_uten":false,"name":"Avalon Bowery Place","region":"nyc","sources":["osm_overpass"],"steam_heated":false},"type":"Feature"},{"geometry":{"coordinates":[-74.008279,40.72446],"type":"Point"},"properties":{"cat":"hotel","demand_kwh":1915090.0159612997,"demand_source":"footprint_estimate","id":"s_00143","in_steam":false,"in_uten":false,"name":"Arlo Soho","region":"nyc","sources":["osm_overpass"],"steam_heated":false},"type":"Feature"},{"geometry":{"coordinates":[-73.998643,40.724912],"type":"Point"},"properties":{"cat":"hotel","demand_kwh":1500000.0,"demand_source":"category_default","id":"s_00144","in_steam":false,"in_uten":false,"name":"Mercer Hotel","region":"nyc","sources":["osm_overpass"],"steam_heated":false},"type":"Feature"},{"geometry":{"coordinates":[-74.005496,40.725321],"type":"Point"},"properties":{"cat":"hotel","demand_kwh":2489327.3145136423,"demand_source":"footprint_estimate","id":"s_00145","in_steam":false,"in_uten":false,"name":"The Dominick","region":"nyc","sources":["osm_overpass"],"steam_heated":false},"type":"Feature"},{"geometry":{"coordinates":[-74.002307,40.72558],"type":"Point"},"properties":{"cat":"pool","demand_kwh":25556.600140035152,"demand_source":"footprint_estimate","id":"s_00146","in_steam":false,"in_uten":false,"name":"Vesuvio Pool","region":"nyc","sources":["osm_overpass"],"steam_heated":false},"type":"Feature"},{"geometry":{"coordinates":[-73.990571,40.725639],"type":"Point"},"properties":{"cat":"greenhouse","demand_kwh":15941.082422807813,"demand_source":"footprint_estimate","id":"s_00147","in_steam":false,"in_uten":false,"name":"Unnamed greenhouse","region":"nyc","sources":["osm_overpass"],"steam_heated":false},"type":"Feature"},{"geometry":{"coordinates":[-73.991475,40.726023],"type":"Point"},"properties":{"cat":"hotel","demand_kwh":2449568.8374120556,"demand_source":"footprint_estimate","id":"s_00148","in_steam":false,"in_uten":false,"name":"The Bowery Hotel","region":"nyc","sources":["osm_overpass"],"steam_heated":false},"type":"Feature"},{"geometry":{"coordinates":[-73.992151,40.726083],"type":"Point"},"properties":{"cat":"hotel","demand_kwh":1500000.0,"demand_source":"category_default","id":"s_00149","in_steam":false,"in_uten":false,"name":"Now Now","region":"nyc","sources":["osm_overpass"],"steam_heated":false},"type":"Feature"},{"geometry":{"coordinates":[-74.008725,40.726386],"type":"Point"},"properties":{"cat":"hotel","demand_kwh":832424.6304061264,"demand_source":"footprint_estimate","id":"s_00150","in_steam":false,"in_uten":false,"name":"Unnamed hotel","region":"nyc","sources":["osm_overpass"],"steam_heated":false},"type":"Feature"},{"geometry":{"coordinates":[-74.006122,40.72694],"type":"Point"},"properties":{"cat":"hotel","demand_kwh":590100.3981281072,"demand_source":"footprint_estimate","id":"s_00151","in_steam":false,"in_uten":false,"name":"Four Points by Sheraton","region":"nyc","sources":["osm_overpass"],"steam_heated":false},"type":"Feature"},{"geometry":{"coordinates":[-74.005803,40.727552],"type":"Point"},"properties":{"cat":"hotel","demand_kwh":436082.0490273647,"demand_source":"footprint_estimate","id":"s_00152","in_steam":false,"in_uten":false,"name":"Courtyard","region":"nyc","sources":["osm_overpass"],"steam_heated":false},"type":"Feature"},{"geometry":{"coordinates":[-74.006264,40.728324],"type":"Point"},"properties":{"cat":"office","demand_kwh":8084048.70134566,"demand_source":"footprint_estimate","id":"s_00153","in_steam":false,"in_uten":false,"name":"Federal Building","region":"nyc","sources":["osm_overpass"],"steam_heated":false},"type":"Feature"},{"geometry":{"coordinates":[-73.995715,40.728699],"type":"Point"},"properties":{"cat":"university","demand_kwh":5000000.0,"demand_source":"category_default","id":"s_00154","in_steam":false,"in_uten":false,"name":"NYU Courant Institute of Mathematics, Computing, and Data Science","region":"nyc","sources":["osm_overpass"],"steam_heated":false},"type":"Feature"},{"geometry":{"coordinates":[-73.996496,40.729269],"type":"Point"},"properties":{"cat":"university","demand_kwh":145376304.06726784,"demand_source":"footprint_estimate","id":"s_00155","in_steam":false,"in_uten":false,"name":"New York University","region":"nyc","sources":["osm_overpass"],"steam_heated":false},"type":"Feature"},{"geometry":{"coordinates":[-74.005708,40.72972],"type":"Point"},"properties":{"cat":"pool","demand_kwh":234450.58967918158,"demand_source":"footprint_estimate","id":"s_00156","in_steam":false,"in_uten":false,"name":"Unnamed pool","region":"nyc","sources":["osm_overpass"],"steam_heated":false},"type":"Feature"}],"type":"FeatureCollection"}
