{"features":[{"geometry":{"coordinates":[[[-74.1769182,40.5954024],[-74.1764477,40.5931722],[-74.1757742,40.5927682],[-74.1754566,40.5932179],[-74.1754995,40.5921686],[-74.175079,40.5918753],[-74.1754395,40.5919404],[-74.1757141,40.5925466],[-74.1763149,40.5926769],[-74.1773473,40.5937339],[-74.1780315,40.5936546],[-74.1778427,40.5927877],[-74.1781175,40.593744],[-74.1795103,40.5932907],[-74.1798794,40.5928997],[-74.1794077,40.5925644],[-74.1799631,40.592614],[-74.1801679,40.591915],[-74.1799887,40.5905914],[-74.1791046,40.5897115],[-74.1785381,40.5881668],[-74.1797935,40.5871118],[-74.1790811,40.5868902],[-74.1790188,40.5864981],[-74.1812534,40.5857606],[-74.1813471,40.5852476],[-74.181266,40.5847337],[-74.1787012,40.582372],[-74.1779911,40.5807824],[-74.1782743,40.5795439],[-74.1803517,40.5771714],[-74.1817508,40.5767477],[-74.1850467,40.5768129],[-74.1865439,40.5780245],[-74.1816907,40.5780982],[-74.1808536,40.5785095],[-74.180017,40.5797138],[-74.1802487,40.5808937],[-74.181725,40.5824778],[-74.1832442,40.5850461],[-74.1828408,40.586278],[-74.1802118,40.5883207],[-74.1803943,40.5891846],[-74.1811325,40.5901818],[-74.1814758,40.5917656],[-74.1806537,40.5934587],[-74.1800089,40.5938943],[-74.1803862,40.5943828],[-74.1798712,40.5940178],[-74.1793562,40.5947217],[-74.1792911,40.5942932],[-74.1772529,40.5944965],[-74.1774515,40.5956096],[-74.1781844,40.5953281],[-74.177472,40.5960441],[-74.1783733,40.5958756],[-74.1779747,40.5962162],[-74.1782729,40.5964545],[-74.1770705,40.5963655],[-74.1768913,40.5972483],[-74.1759186,40.5977115],[-74.1758381,40.598238],[-74.1752449,40.5987168],[-74.1749597,40.5994835],[-74.1734672,40.5992864],[-74.1732541,40.599882],[-74.1728112,40.600198],[-74.173235,40.6002879],[-74.1732404,40.6005481],[-74.1729904,40.6006579],[-74.172585,40.6006032],[-74.1729878,40.6008034],[-74.1729356,40.6010237],[-74.172353,40.6011839],[-74.1726628,40.6012301],[-74.1728671,40.6015858],[-74.1716671,40.602199],[-74.1727595,40.6015561],[-74.1722671,40.60115],[-74.172886,40.6009234],[-74.1725029,40.6005599],[-74.1731539,40.6005105],[-74.1727075,40.6002215],[-74.173354,40.5992703],[-74.174923,40.5993463],[-74.1751591,40.5985734],[-74.1756651,40.5982243],[-74.1756158,40.5976607],[-74.1752381,40.5972847],[-74.1745367,40.5975338],[-74.1745125,40.5973238],[-74.176411,40.5969724],[-74.1769354,40.5957413],[-74.1765708,40.5956475],[-74.1769182,40.5954024]],[[-74.1758157,40.5974893],[-74.1764341,40.59713],[-74.1757143,40.5974084],[-74.1758157,40.5974893]]],"type":"Polygon"},"properties":{"kind":"water"},"type":"Feature"},{"geometry":{"coordinates":[[[-74.1608707,40.6022424],[-74.1616082,40.6005725],[-74.1618439,40.6004764],[-74.1619922,40.6017586],[-74.1611443,40.6025829],[-74.1608707,40.6022424]]],"type":"Polygon"},"properties":{"kind":"water"},"type":"Feature"},{"geometry":{"coordinates":[[[-74.1571003,40.6065715],[-74.1581486,40.604295],[-74.1587301,40.6042829],[-74.1588236,40.604824],[-74.1579478,40.6066914],[-74.1577192,40.6068882],[-74.1571003,40.6065715]]],"type":"Polygon"},"properties":{"kind":"water"},"type":"Feature"},{"geometry":{"coordinates":[[[-74.1967742,40.6101033],[-74.1957159,40.6092704],[-74.1949479,40.6094182],[-74.1954328,40.6099421],[-74.1950187,40.6102215],[-74.1943781,40.6103559],[-74.1951674,40.6100711],[-74.1947958,40.6093913],[-74.1934509,40.6094262],[-74.1932491,40.6101436],[-74.1933411,40.6095767],[-74.1927183,40.6094289],[-74.1927926,40.60966],[-74.1925271,40.609566],[-74.192697,40.609308],[-74.1931182,40.6093618],[-74.1927624,40.6089415],[-74.1924969,40.6090962],[-74.1927597,40.60886],[-74.1926012,40.608334],[-74.1917202,40.6083064],[-74.1915808,40.6085325],[-74.1917967,40.6085752],[-74.193291,40.6129853],[-74.191486,40.6085318],[-74.1916079,40.608325],[-74.188024,40.6081877],[-74.1881408,40.6090138],[-74.1877999,40.6094215],[-74.1873329,40.6094427],[-74.1876177,40.6095845],[-74.1874543,40.6100419],[-74.1874823,40.6095952],[-74.1871974,40.6096519],[-74.1872581,40.6093718],[-74.187585,40.6093399],[-74.1868655,40.6087448],[-74.1864876,40.6092158],[-74.186609,40.6096732],[-74.1863615,40.6092655],[-74.1864829,40.6090244],[-74.1859505,40.6088649],[-74.185605,40.6088932],[-74.1859319,40.6095456],[-74.1854882,40.6098434],[-74.1839658,40.6098292],[-74.1856843,40.6095314],[-74.1853528,40.6088684],[-74.185633,40.6087018],[-74.1865903,40.6088471],[-74.186567,40.6083189],[-74.1871937,40.6079378],[-74.1865296,40.6075779],[-74.1851987,40.6084075],[-74.1844141,40.608326],[-74.1840592,40.6086947],[-74.184232,40.6083721],[-74.1840078,40.6083331],[-74.1843581,40.6082941],[-74.1841899,40.6080352],[-74.1849278,40.6083508],[-74.1856703,40.6079572],[-74.1852407,40.6072553],[-74.185661,40.6070425],[-74.184431,40.6064421],[-74.1850352,40.6066844],[-74.1858385,40.6063973],[-74.1857077,40.6067518],[-74.1852547,40.6066348],[-74.1858992,40.6069787],[-74.1855863,40.6072836],[-74.1859692,40.6074467],[-74.1857918,40.6076452],[-74.1867865,40.6072304],[-74.1873235,40.6063334],[-74.1863241,40.6060604],[-74.1866183,40.6058867],[-74.1860253,40.6054187],[-74.1863335,40.605011],[-74.186128,40.6054648],[-74.1868472,40.6058583],[-74.1877111,40.6053301],[-74.1874543,40.6049365],[-74.1885984,40.6056563],[-74.1878325,40.6054045],[-74.1869826,40.6059257],[-74.187599,40.6062448],[-74.1877952,40.6069716],[-74.1875897,40.606493],[-74.1869601,40.607285],[-74.1880103,40.6075151],[-74.1868899,40.6073752],[-74.187362,40.6078863],[-74.1867344,40.608432],[-74.1877965,40.6091121],[-74.1880218,40.6088759],[-74.1878617,40.6080453],[-74.1890646,40.6081361],[-74.1891424,40.6075558],[-74.1892658,40.6080893],[-74.1929423,40.6080927],[-74.1955858,40.6068623],[-74.1958384,40.6073302],[-74.1956844,40.6078588],[-74.1956104,40.6072787],[-74.1948833,40.6074284],[-74.19301,40.608495],[-74.1932319,40.6090938],[-74.1965533,40.609178],[-74.1974101,40.6097922],[-74.1969089,40.610327],[-74.1960593,40.610595],[-74.1967742,40.6101033]]],"type":"Polygon"},"properties":{"kind":"water"},"type":"Feature"},{"geometry":{"coordinates":[[[-74.1827747,40.6166645],[-74.1823161,40.6167948],[-74.181101,40.6161229],[-74.1813102,40.6159295],[-74.1825628,40.6163122],[-74.1827747,40.6166645]]],"type":"Polygon"},"properties":{"kind":"water"},"type":"Feature"},{"geometry":{"coordinates":[[[-74.1837368,40.6166491],[-74.1845289,40.6168212],[-74.1840005,40.6176458],[-74.1833568,40.617257],[-74.1837368,40.6166491]]],"type":"Polygon"},"properties":{"kind":"water"},"type":"Feature"},{"geometry":{"coordinates":[[[-74.168169,40.6191767],[-74.169199,40.6191279],[-74.1694994,40.6196654],[-74.1690702,40.6201703],[-74.1682548,40.620154],[-74.1680208,40.6198259],[-74.168169,40.6191767]]],"type":"Polygon"},"properties":{"kind":"water"},"type":"Feature"},{"geometry":{"coordinates":[[[-74.121751,40.6256086],[-74.120174,40.6249294],[-74.1199481,40.6240966],[-74.1201599,40.6239038],[-74.1199081,40.6237815],[-74.1198475,40.6236154],[-74.1201993,40.6237931],[-74.1203131,40.6235195],[-74.1219211,40.625781],[-74.1225635,40.6273581],[-74.121751,40.6256086]]],"type":"Polygon"},"properties":{"kind":"water"},"type":"Feature"},{"geometry":{"coordinates":[[[-74.0977884,40.6271592],[-74.0971894,40.6282982],[-74.0956182,40.6284103],[-74.0959926,40.6293976],[-74.0951773,40.630224],[-74.0946112,40.6303362],[-74.0921612,40.6295671],[-74.0924302,40.6288388],[-74.0940444,40.6275366],[-74.094664,40.6261245],[-74.0960087,40.6242028],[-74.0965405,40.623896],[-74.0975125,40.6240355],[-74.0986418,40.625713],[-74.0986437,40.6264137],[-74.0977884,40.6271592]]],"type":"Polygon"},"properties":{"kind":"water"},"type":"Feature"},{"geometry":{"coordinates":[[[-74.0350672,40.643037],[-74.0339362,40.6423726],[-74.0348174,40.6415292],[-74.0359379,40.6422009],[-74.0350672,40.643037]]],"type":"Polygon"},"properties":{"kind":"water"},"type":"Feature"},{"geometry":{"coordinates":[[[-73.9979509,40.6539178],[-73.9978296,40.6533995],[-73.99824,40.6531172],[-73.9990794,40.6534774],[-73.9993969,40.6540697],[-73.9991299,40.6543137],[-73.9979509,40.6539178]]],"type":"Polygon"},"properties":{"kind":"water"},"type":"Feature"},{"geometry":{"coordinates":[[[-73.9685043,40.6590737],[-73.9672615,40.6597946],[-73.9671408,40.6602092],[-73.9666178,40.6598728],[-73.9664056,40.6606795],[-73.9658624,40.6607127],[-73.966263,40.661697],[-73.9654776,40.6611697],[-73.9654974,40.6606575],[-73.9661015,40.6604238],[-73.9661199,40.6598142],[-73.968094,40.6590328],[-73.9682775,40.6581105],[-73.9685043,40.6590737]]],"type":"Polygon"},"properties":{"kind":"water"},"type":"Feature"},{"geometry":{"coordinates":[[[-73.9683592,40.6618725],[-73.9674822,40.662079],[-73.9672559,40.6621423],[-73.966909,40.662164],[-73.966696,40.6620389],[-73.9681313,40.6617453],[-73.968397,40.6618556],[-73.9689557,40.6622417],[-73.9691928,40.6625757],[-73.9691968,40.6629072],[-73.9689299,40.6637715],[-73.9690376,40.6639073],[-73.9689681,40.6640697],[-73.9691563,40.6642378],[-73.969488,40.6640688],[-73.9704201,40.6642038],[-73.9704483,40.6639999],[-73.9708415,40.6638074],[-73.9704846,40.6633127],[-73.9712946,40.6633422],[-73.9718704,40.662921],[-73.9717999,40.6632123],[-73.9703718,40.6642535],[-73.9691147,40.6642461],[-73.9689519,40.6641067],[-73.968888,40.6638127],[-73.969137,40.6625422],[-73.9683592,40.6618725]]],"type":"Polygon"},"properties":{"kind":"water"},"type":"Feature"},{"geometry":{"coordinates":[[[-73.9626995,40.6691914],[-73.9626925,40.6683925],[-73.9631515,40.6680958],[-73.9639431,40.6683203],[-73.963059,40.6685074],[-73.9630222,40.6687478],[-73.9632653,40.6687071],[-73.9632883,40.668887],[-73.9626995,40.6691914]]],"type":"Polygon"},"properties":{"kind":"water"},"type":"Feature"},{"geometry":{"coordinates":[[[-73.8869853,40.6903566],[-73.8855586,40.6889424],[-73.8855605,40.6883412],[-73.8865088,40.6881005],[-73.887366,40.6901911],[-73.8869853,40.6903566]]],"type":"Polygon"},"properties":{"kind":"water"},"type":"Feature"},{"geometry":{"coordinates":[[[-73.9753994,40.6995615],[-73.9758185,40.6997512],[-73.9748393,40.7012194],[-73.9743748,40.7011163],[-73.9753994,40.6995615]]],"type":"Polygon"},"properties":{"kind":"water"},"type":"Feature"},{"geometry":{"coordinates":[[[-73.9721273,40.7027426],[-73.9694781,40.7004858],[-73.9698278,40.7002491],[-73.9725347,40.7024636],[-73.9721273,40.7027426]]],"type":"Polygon"},"properties":{"kind":"water"},"type":"Feature"},{"geometry":{"coordinates":[[[-73.9786756,40.7027845],[-73.9777723,40.7026385],[-73.9779401,40.7020421],[-73.9788434,40.7021882],[-73.9786756,40.7027845]]],"type":"Polygon"},"properties":{"kind":"water"},"type":"Feature"},{"geometry":{"coordinates":[[[-73.9689991,40.7017344],[-73.9692439,40.7013759],[-73.9722657,40.7032423],[-73.971912,40.703574],[-73.9689991,40.7017344]]],"type":"Polygon"},"properties":{"kind":"water"},"type":"Feature"},{"geometry":{"coordinates":[[[-73.9774953,40.7038396],[-73.9778084,40.7027261],[-73.9786472,40.7028617],[-73.9783339,40.7039752],[-73.9774953,40.7038396]]],"type":"Polygon"},"properties":{"kind":"water"},"type":"Feature"},{"geometry":{"coordinates":[[[-73.9626653,40.7386412],[-73.9607426,40.7381246],[-73.9572727,40.7396076],[-73.9538285,40.739827],[-73.9471517,40.7379113],[-73.9426943,40.7391327],[-73.9410461,40.7404377],[-73.9396428,40.7427323],[-73.9401672,40.7428361],[-73.9400302,40.7432306],[-73.9385511,40.7429493],[-73.9386313,40.7425466],[-73.9391431,40.7426348],[-73.9411647,40.7394769],[-73.9459434,40.7375199],[-73.9415941,40.7358262],[-73.9400494,40.7337552],[-73.9391275,40.7314026],[-73.9380263,40.7304994],[-73.9345423,40.7291013],[-73.9293152,40.7282817],[-73.9247225,40.7244393],[-73.9203805,40.7237408],[-73.9206034,40.7232016],[-73.9218737,40.7235529],[-73.924543,40.7235529],[-73.925161,40.7222974],[-73.9242426,40.7212241],[-73.9238317,40.7201445],[-73.9239685,40.7191064],[-73.9234591,40.718122],[-73.9222452,40.7163794],[-73.9205739,40.7160478],[-73.9206506,40.7157652],[-73.9223109,40.71607],[-73.9234321,40.7156365],[-73.9241222,40.7151578],[-73.9237148,40.7141037],[-73.9243954,40.7141289],[-73.9248697,40.7152055],[-73.9243225,40.715856],[-73.9230655,40.7163479],[-73.923475,40.7171653],[-73.9246105,40.7179127],[-73.9286127,40.7169655],[-73.9289323,40.7166637],[-73.9284861,40.715552],[-73.9308574,40.7149088],[-73.9311094,40.7144299],[-73.9303885,40.7131077],[-73.9318542,40.7125544],[-73.931638,40.7120369],[-73.9307031,40.7121633],[-73.9315538,40.7118713],[-73.9301832,40.7087969],[-73.9305086,40.7086782],[-73.9319293,40.7113426],[-73.9332807,40.7109905],[-73.9333831,40.7112247],[-73.9320509,40.7115831],[-73.9327189,40.7130556],[-73.9312569,40.713721],[-73.931704,40.7147582],[-73.9321439,40.7146281],[-73.9322726,40.7149859],[-73.9295475,40.7157015],[-73.9293222,40.7159943],[-73.9297299,40.7170108],[-73.9289789,40.717767],[-73.928378,40.7175637],[-73.9248667,40.7184207],[-73.9245401,40.7195121],[-73.924852,40.7202419],[-73.9256503,40.7200467],[-73.9278046,40.7249189],[-73.9278819,40.72581],[-73.92862,40.7267402],[-73.9303138,40.7277712],[-73.934961,40.7285595],[-73.9380809,40.7297284],[-73.9397803,40.7310912],[-73.9417629,40.7349502],[-73.9445439,40.7362839],[-73.945042,40.7354241],[-73.9452767,40.7359216],[-73.9450018,40.7364216],[-73.9455745,40.7366106],[-73.9458561,40.7360984],[-73.9462692,40.7361696],[-73.946752,40.7353058],[-73.9465977,40.7344512],[-73.9470631,40.7344095],[-73.947209,40.7353603],[-73.9464744,40.7369081],[-73.9519376,40.7387443],[-73.9556005,40.7390557],[-73.9569287,40.738898],[-73.9591436,40.7375759],[-73.9620434,40.7344646],[-73.962978,40.738393],[-73.9626653,40.7386412]]],"type":"Polygon"},"properties":{"kind":"water"},"type":"Feature"},{"geometry":{"coordinates":[[[-73.7606561,40.6631519],[-73.7605633,40.6638005],[-73.7603177,40.6634624],[-73.7612837,40.6616657],[-73.7616706,40.6614102],[-73.7621849,40.6615518],[-73.7620438,40.6622561],[-73.7613839,40.6629294],[-73.7606561,40.6631519]]],"type":"Polygon"},"properties":{"kind":"water"},"type":"Feature"},{"geometry":{"coordinates":[[[-73.8085019,40.6641505],[-73.8070894,40.6638946],[-73.8076376,40.6625553],[-73.8094632,40.662886],[-73.8091849,40.6637703],[-73.8086545,40.6636743],[-73.8085019,40.6641505]]],"type":"Polygon"},"properties":{"kind":"water"},"type":"Feature"},{"geometry":{"coordinates":[[[-73.7852657,40.681067],[-73.7849814,40.6806684],[-73.7852711,40.6786343],[-73.7849921,40.6779915],[-73.7840855,40.6774138],[-73.782841,40.677845],[-73.7826962,40.67743],[-73.7838334,40.6768849],[-73.7840694,40.6763194],[-73.7846426,40.6762179],[-73.784766,40.6753346],[-73.7855876,40.6746391],[-73.7864298,40.6749361],[-73.7858963,40.6764782],[-73.7864566,40.6778572],[-73.786301,40.6788377],[-73.7868589,40.6799198],[-73.7862206,40.6809328],[-73.7852657,40.681067]]],"type":"Polygon"},"properties":{"kind":"water"},"type":"Feature"}],"type":"FeatureCollection"}
