{"features":[{"geometry":{"coordinates":[[[-74.019,40.7],[-73.972,40.709],[-73.97,40.725],[-73.964,40.742],[-73.96,40.759],[-73.949,40.781],[-73.943,40.793],[-73.972,40.801],[-73.988,40.778],[-74.01,40.756],[-74.018,40.735],[-74.019,40.7]]],"type":"Polygon"},"properties":{"approximate":true,"kind":"steam","name":"Con Edison Manhattan steam system (approximate)","note":"TODO: replace with a published service-territory boundary. Hand-drawn from the system's usual description as Manhattan south of 96th St; not authoritative."},"type":"Feature"},{"geometry":{"coordinates":[[[-122.346,47.619],[-122.326,47.619],[-122.318,47.614],[-122.311,47.611],[-122.311,47.603],[-122.32,47.598],[-122.33,47.596],[-122.34,47.597],[-122.346,47.604],[-122.346,47.619]]],"type":"Polygon"},"properties":{"approximate":true,"kind":"steam","name":"Enwave Seattle","note":"Hand-drawn approximation of Enwave Seattle's district steam service area: the downtown core from Denny Way south through Pioneer Square, and First Hill. Not authoritative; Enwave publishes no service-area geodata. The Westin Building Exchange and Amazon's campus sit at its northern edge."},"type":"Feature"}],"type":"FeatureCollection"}
