{"features":[{"geometry":{"coordinates":[[[-74.019,40.7],[-73.972,40.709],[-73.97,40.725],[-73.964,40.742],[-73.96,40.759],[-73.949,40.781],[-73.943,40.793],[-73.972,40.801],[-73.988,40.778],[-74.01,40.756],[-74.018,40.735],[-74.019,40.7]]],"type":"Polygon"},"properties":{"approximate":true,"kind":"steam","name":"Con Edison Manhattan steam system (approximate)","note":"TODO: replace with a published service-territory boundary. Hand-drawn from the system's usual description as Manhattan south of 96th St; not authoritative."},"type":"Feature"}],"type":"FeatureCollection"}
